NORAD_CAT_ID,OBJECT_NAME,OBJECT_TYPE,EPOCH,MEAN_MOTION,ECCENTRICITY,INCLINATION,RA_OF_ASC_NODE,ARG_OF_PERICENTER,MEAN_ANOMALY,BSTAR,MEAN_MOTION_DOT,MEAN_MOTION_DDOT,TLE_LINE0,TLE_LINE1,TLE_LINE2,SEMIMAJOR_AXIS,PERIOD,APOGEE,PERIGEE,DECAYED
53242.0,STARLINK-4056,PAYLOAD,2023-12-15 22:49:06,15.08839419,0.0001664,53.2176,256.6174,106.8142,253.3033,-3.8097e-06,-3.49e-06,0.0,0 STARLINK-4056,1 53242U 22086A   23349.95076726 -.00000349  00000-0 -38097-5 0  9997,2 53242  53.2176 256.6174 0001664 106.8142 253.3033 15.08839419 78318,6917.882,95.438,540.898,538.596,0.0
53242.0,STARLINK-4056,PAYLOAD,2023-12-16 00:24:29,15.08839289,0.0001642,53.2175,256.3206,107.4799,252.6373,7.5029e-06,-1.69e-06,0.0,0 STARLINK-4056,1 53242U 22086A   23350.01700713 -.00000169  00000-0  75029-5 0  9991,2 53242  53.2175 256.3206 0001642 107.4799 252.6373 15.08839289 77820,6917.883,95.438,540.883,538.612,0.0
53242.0,STARLINK-4056,PAYLOAD,2023-12-16 22:39:52,15.08849664,0.0001717,53.2184,252.1565,85.906,274.2128,4.4684e-05,4.23e-06,0.0,0 STARLINK-4056,1 53242U 22086A   23350.94436114  .00000423  00000-0  44684-4 0  9998,2 53242  53.2184 252.1565 0001717  85.9060 274.2128 15.08849664 78463,6917.851,95.437,540.904,538.528,0.0
53242.0,STARLINK-4056,PAYLOAD,2023-12-17 00:15:15,15.08852885,0.0001733,53.218,251.859,92.4379,267.6812,7.6806e-05,9.35e-06,0.0,0 STARLINK-4056,1 53242U 22086A   23351.01059786  .00000935  00000-0  76806-4 0  9992,2 53242  53.2180 251.8590 0001733  92.4379 267.6812 15.08852885 77977,6917.841,95.437,540.905,538.507,0.0
53242.0,STARLINK-4056,PAYLOAD,2023-12-17 22:30:39,15.08846059,0.0001887,53.2174,247.6948,100.8707,259.2498,0.00012457,1.695e-05,0.0,0 STARLINK-4056,1 53242U 22086A   23351.93796210  .00001695  00000-0  12457-3 0  9998,2 53242  53.2174 247.6948 0001887 100.8707 259.2498 15.08846059 78614,6917.862,95.437,541.032,538.421,0.0
53242.0,STARLINK-4056,PAYLOAD,2023-12-18 00:06:03,15.08846644,0.0001754,53.2169,247.3979,92.2387,267.8806,0.00014208,1.974e-05,0.0,0 STARLINK-4056,1 53242U 22086A   23352.00420216  .00001974  00000-0  14208-3 0  9993,2 53242  53.2169 247.3979 0001754  92.2387 267.8806 15.08846644 78124,6917.86,95.437,540.938,538.512,0.0
53242.0,STARLINK-4056,PAYLOAD,2023-12-18 22:21:27,15.08834634,0.0001725,53.2165,243.236,103.4495,256.6689,-6.4474e-05,-1.314e-05,0.0,0 STARLINK-4056,1 53242U 22086A   23352.93156847 -.00001314  00000-0 -64474-4 0  9992,2 53242  53.2165 243.2360 0001725 103.4495 256.6689 15.08834634 78763,6917.897,95.438,540.955,538.568,0.0
53242.0,STARLINK-4056,PAYLOAD,2023-12-18 23:56:50,15.08834617,0.0001684,53.2167,242.9383,100.4395,259.6787,-5.7037e-05,-1.196e-05,0.0,0 STARLINK-4056,1 53242U 22086A   23352.99780876 -.00001196  00000-0 -57037-4 0  9998,2 53242  53.2167 242.9383 0001684 100.4395 259.6787 15.08834617 78275,6917.897,95.438,540.927,538.597,0.0
53242.0,STARLINK-4056,PAYLOAD,2023-12-19 22:12:14,15.08835113,0.0001582,53.216,238.7826,113.6975,246.4183,-8.8896e-05,-1.702e-05,0.0,0 STARLINK-4056,1 53242U 22086A   23353.92517228 -.00001702  00000-0 -88896-4 0  9991,2 53242  53.2160 238.7826 0001582 113.6975 246.4183 15.08835113 78917,6917.895,95.438,540.855,538.666,0.0
53242.0,STARLINK-4056,PAYLOAD,2023-12-20 20:27:38,15.08840416,0.0001516,53.2164,234.6172,109.1336,250.982,0.00017613,2.516e-05,0.0,0 STARLINK-4056,1 53242U 22086A   23354.85253283  .00002516  00000-0  17613-3 0  9992,2 53242  53.2164 234.6172 0001516 109.1336 250.9820 15.08840416 78558,6917.879,95.438,540.793,538.695,0.0
53242.0,STARLINK-4056,PAYLOAD,2023-12-20 22:03:01,15.08843156,0.0001494,53.216,234.3185,106.7869,253.3287,0.0002165,3.16e-05,0.0,0 STARLINK-4056,1 53242U 22086A   23354.91877171  .00003160  00000-0  21650-3 0  9999,2 53242  53.2160 234.3185 0001494 106.7869 253.3287 15.08843156 79069,6917.871,95.437,540.769,538.702,0.0
53242.0,STARLINK-4056,PAYLOAD,2023-12-20 23:38:24,15.08846535,0.0001374,53.2158,234.0188,88.0994,272.0156,0.00025504,3.774e-05,0.0,0 STARLINK-4056,1 53242U 22086A   23354.98501073  .00003774  00000-0  25504-3 0  9994,2 53242  53.2158 234.0188 0001374  88.0994 272.0156 15.08846535 79072,6917.86,95.437,540.676,538.775,0.0
53242.0,STARLINK-4056,PAYLOAD,2023-12-21 21:53:49,15.08841846,0.0001397,53.2153,229.8548,78.6534,281.4615,0.00013468,1.856e-05,0.0,0 STARLINK-4056,1 53242U 22086A   23355.91237602  .00001856  00000-0  13468-3 0  9997,2 53242  53.2153 229.8548 0001397  78.6534 281.4615 15.08841846 79219,6917.875,95.437,540.706,538.773,0.0
53242.0,STARLINK-4056,PAYLOAD,2023-12-21 23:29:12,15.08843316,0.0001434,53.2158,229.5624,92.3259,267.7898,0.00016524,2.343e-05,0.0,0 STARLINK-4056,1 53242U 22086A   23355.97861564  .00002343  00000-0  16524-3 0  9991,2 53242  53.2158 229.5624 0001434  92.3259 267.7898 15.08843316 78724,6917.87,95.437,540.727,538.743,0.0
53242.0,STARLINK-4056,PAYLOAD,2023-12-22 21:44:36,15.08842762,0.0001495,53.2152,225.3969,86.1838,273.9325,0.00011429,1.532e-05,0.0,0 STARLINK-4056,1 53242U 22086A   23356.90597676  .00001532  00000-0  11429-3 0  9993,2 53242  53.2152 225.3969 0001495  86.1838 273.9325 15.08842762 79364,6917.872,95.437,540.771,538.703,0.0
53242.0,STARLINK-4056,PAYLOAD,2023-12-23 15:13:50,15.08843059,0.0001454,53.2143,222.1265,98.5991,261.5166,0.00019453,2.81e-05,0.0,0 STARLINK-4056,1 53242U 22086A   23357.63461732  .00002810  00000-0  19453-3 0  9992,2 53242  53.2143 222.1265 0001454  98.5991 261.5166 15.08843059 79478,6917.871,95.437,540.742,538.73,0.0
53242.0,STARLINK-4056,PAYLOAD,2023-12-23 21:35:23,15.08846553,0.0001489,53.2149,220.9366,92.1494,267.9669,0.00019914,2.883e-05,0.0,0 STARLINK-4056,1 53242U 22086A   23357.89957568  .00002883  00000-0  19914-3 0  9999,2 53242  53.2149 220.9366 0001489  92.1494 267.9669 15.08846553 79513,6917.86,95.437,540.755,538.695,0.0
53242.0,STARLINK-4056,PAYLOAD,2023-12-24 15:04:37,15.08844218,0.0001569,53.2147,217.6673,74.1879,285.9286,0.00012993,1.781e-05,0.0,0 STARLINK-4056,1 53242U 22086A   23358.62821727  .00001781  00000-0  12993-3 0  9994,2 53242  53.2147 217.6673 0001569  74.1879 285.9286 15.08844218 79624,6917.867,95.437,540.818,538.647,0.0
53242.0,STARLINK-4056,PAYLOAD,2023-12-24 19:50:47,15.08844388,0.0001453,53.2148,216.7742,84.5303,275.5855,0.00011861,1.6e-05,0.0,0 STARLINK-4056,1 53242U 22086A   23358.82693586  .00001600  00000-0  11861-3 0  9999,2 53242  53.2148 216.7742 0001453  84.5303 275.5855 15.08844388 79154,6917.867,95.437,540.737,538.727,0.0
53242.0,STARLINK-4056,PAYLOAD,2023-12-24 21:26:10,15.08846894,0.0001449,53.2149,216.4763,87.2732,272.8426,0.00012581,1.715e-05,0.0,0 STARLINK-4056,1 53242U 22086A   23358.89317434  .00001715  00000-0  12581-3 0  9998,2 53242  53.2149 216.4763 0001449  87.2732 272.8426 15.08846894 79660,6917.859,95.437,540.727,538.722,0.0
53242.0,STARLINK-4056,PAYLOAD,2023-12-25 00:36:56,15.08849231,0.0001443,53.215,215.8809,89.3967,270.719,0.00017802,2.547e-05,0.0,0 STARLINK-4056,1 53242U 22086A   23359.02565242  .00002547  00000-0  17802-3 0  9991,2 53242  53.2150 215.8809 0001443  89.3967 270.7190 15.08849231 79688,6917.852,95.437,540.715,538.719,0.0
53242.0,STARLINK-4056,PAYLOAD,2023-12-25 21:16:57,15.08841744,0.0001495,53.2159,212.0126,108.2016,251.9139,1.3579e-05,-7.2e-07,0.0,0 STARLINK-4056,1 53242U 22086A   23359.88677606 -.00000072  00000-0  13579-4 0  9993,2 53242  53.2159 212.0126 0001495 108.2016 251.9139 15.08841744 79811,6917.875,95.437,540.774,538.706,0.0
53242.0,STARLINK-4056,PAYLOAD,2023-12-26 13:10:49,15.08837124,0.0001401,53.2161,209.04,98.4264,261.6887,-1.0778e-06,-3.05e-06,0.0,0 STARLINK-4056,1 53242U 22086A   23360.54918168 -.00000305  00000-0 -10778-5 0  9998,2 53242  53.2161 209.0400 0001401  98.4264 261.6887 15.08837124 79913,6917.889,95.438,540.723,538.785,0.0
53242.0,STARLINK-4056,PAYLOAD,2023-12-26 19:32:21,15.08838343,0.0001366,53.2159,207.8513,96.0256,264.0891,1.21e-05,-9.5e-07,0.0,0 STARLINK-4056,1 53242U 22086A   23360.81414063 -.00000095  00000-0  12100-4 0  9998,2 53242  53.2159 207.8513 0001366  96.0256 264.0891 15.08838343 79451,6917.885,95.438,540.695,538.805,0.0
53242.0,STARLINK-4056,PAYLOAD,2023-12-27 20:58:31,15.0883994,0.0001339,53.2159,203.0941,92.0745,268.0401,9.5488e-05,1.232e-05,0.0,0 STARLINK-4056,1 53242U 22086A   23361.87397997  .00001232  00000-0  95488-4 0  9994,2 53242  53.2159 203.0941 0001339  92.0745 268.0401 15.08839940 80113,6917.881,95.438,540.672,538.819,0.0
53242.0,STARLINK-4056,PAYLOAD,2023-12-28 00:09:18,15.08841243,0.0001355,53.2159,202.499,96.3877,263.7269,0.00010502,1.384e-05,0.0,0 STARLINK-4056,1 53242U 22086A   23362.00645876  .00001384  00000-0  10502-3 0  9993,2 53242  53.2159 202.4990 0001355  96.3877 263.7269 15.08841243 79639,6917.877,95.437,540.679,538.804,0.0
53242.0,STARLINK-4056,PAYLOAD,2023-12-28 19:13:56,15.0883787,0.0001349,53.2161,198.93,98.0646,262.0499,7.181e-05,8.55e-06,0.0,0 STARLINK-4056,1 53242U 22086A   23362.80134336  .00000855  00000-0  71810-4 0  9997,2 53242  53.2161 198.9300 0001349  98.0646 262.0499 15.08837870 79753,6917.887,95.438,540.685,538.819,0.0
53242.0,STARLINK-4056,PAYLOAD,2023-12-28 20:49:19,15.08837911,0.0001348,53.2162,198.6327,96.3787,263.7358,6.775e-05,7.9e-06,0.0,0 STARLINK-4056,1 53242U 22086A   23362.86758303  .00000790  00000-0  67750-4 0  9995,2 53242  53.2162 198.6327 0001348  96.3787 263.7358 15.08837911 80262,6917.887,95.438,540.684,538.819,0.0
53242.0,STARLINK-4056,PAYLOAD,2023-12-29 12:43:10,15.08840214,0.000136,53.2164,195.6585,94.9836,265.1311,3.7436e-05,3.08e-06,0.0,0 STARLINK-4056,1 53242U 22086A   23363.52998375  .00000308  00000-0  37436-4 0  9997,2 53242  53.2164 195.6585 0001360  94.9836 265.1311 15.08840214 80366,6917.88,95.438,540.686,538.804,0.0
53242.0,STARLINK-4056,PAYLOAD,2023-12-29 20:40:06,15.08842475,0.0001354,53.2162,194.172,91.3678,268.747,4.6978e-05,4.6e-06,0.0,0 STARLINK-4056,1 53242U 22086A   23363.86118128  .00000460  00000-0  46978-4 0  9994,2 53242  53.2162 194.1720 0001354  91.3678 268.7470 15.08842475 80419,6917.873,95.437,540.675,538.801,0.0
